OBJECT_NAME,OBJECT_ID,EPOCH,MEAN_MOTION,ECCENTRICITY,INCLINATION,RA_OF_ASC_NODE,ARG_OF_PERICENTER,MEAN_ANOMALY,EPHEMERIS_TYPE,CLASSIFICATION_TYPE,NORAD_CAT_ID,ELEMENT_SET_NO,REV_AT_EPOCH,BSTAR,MEAN_MOTION_DOT,MEAN_MOTION_DDOT
TYVAK-0173,2021-059P,2026-06-12T17:47:11.783040,14.81877608,.001048,96.0086,241.2028,52.9227,307.2947,0,U,48892,999,26758,.21987E-3,.1709E-4,0
MANDRAKE 2 ABLE,2021-059AE,2026-06-12T19:08:54.947616,15.54820205,.0004779,97.7031,353.2483,21.5330,338.6123,0,U,48907,999,27644,.34379E-3,.22832E-3,0
MANDRAKE 2 BAKER,2021-059AF,2026-06-12T03:57:14.644512,15.59312225,.0003351,97.7004,355.4037,26.4419,333.7006,0,U,48908,999,27651,.358901E-3,.28188E-3,0
PACE-1,2021-059AG,2026-06-12T06:37:13.518624,15.79022279,.00007755,97.6766,0.8663,300.2810,59.8379,0,U,48909,999,27702,.5468394E-3,.97533E-3,0
YAM-3,2021-059AN,2026-06-12T19:15:19.897632,15.48462240,.0005395,97.6990,350.4717,25.3896,334.7618,0,U,48915,999,27631,.23797E-3,.12547E-3,0
FARADAY_PHOENIX,2021-059AX,2026-06-12T01:53:53.215296,15.77162162,.00026875,97.6816,0.5452,328.1615,31.9487,0,U,48924,999,27685,.77316595E-3,.127469E-2,0
DEMO8 (TENZING),2021-059CA,2026-06-12T19:13:15.350304,15.54834712,.0006664,97.7022,356.8874,12.0432,348.0980,0,U,48951,999,27662,.316E-3,.20993E-3,0
NAPA-2,2021-059CN,2026-06-12T06:01:57.999072,15.97574649,.0002918,97.6689,1.7349,243.6052,116.4925,0,U,48963,999,27702,.76008864E-3,.335825E-2,.48085887E-4
FENGYUN 3E,2021-062A,2026-06-12T21:40:37.609248,14.19904097,.0002795,98.7493,167.3584,92.3223,267.8273,0,U,49008,999,25597,.29562E-4,.19E-6,0
ISS (NAUKA),2021-066A,2026-06-12T19:16:30.351648,15.49196054,.00049,51.6335,321.7912,178.5917,181.5086,0,U,49044,999,57118,.16106E-3,.8495E-4,0
STARLINK-3100,2021-082Q,2026-06-12T20:01:31.791072,14.98325117,.000308,70.0001,54.5541,268.5172,91.5634,0,U,49144,999,26023,.12052E-3,.1345E-4,0
CUTE,2021-088D,2026-06-12T18:56:24.497088,15.91900919,.0007665,97.4156,262.6626,237.5184,122.5349,0,U,49263,999,26185,.46806E-3,.153027E-2,.10815E-4
2021-091B,2021-091B,2026-06-12T20:13:35.472288,15.18533888,.0014898,97.4476,351.4843,59.1772,301.0926,0,U,49316,999,25832,.12113E-3,.2439E-4,0
SDGSAT 1,2021-100A,2026-06-12T21:15:27.599904,15.19905373,.0006731,97.2642,210.9953,317.9752,42.0966,0,U,49387,999,25526,.11553E-3,.2416E-4,0
TEIKYOSAT-4 (OORURI),2021-102B,2026-06-12T19:29:05.861760,15.09494715,.0010746,97.3671,193.4655,313.8079,46.2261,0,U,49396,999,25206,.11696E-3,.1815E-4,0
Z-SAT,2021-102E,2026-06-12T20:21:15.528960,15.18230933,.0014892,97.3330,199.3026,261.8922,98.0623,0,U,49399,999,25278,.20037E-3,.4045E-4,0
HIBARI,2021-102F,2026-06-12T02:32:58.544160,15.31626124,.00108495,97.3245,209.0673,210.1983,149.8634,0,U,49400,999,25341,.30830782E-3,.9356E-4,0
KOSEN-1,2021-102H,2026-06-12T02:17:02.332896,15.26764823,.00126724,97.3194,205.3513,219.4221,140.6097,0,U,49402,999,25324,.24961029E-3,.651E-4,0
GLOBAL-14,2021-106A,2026-06-12T03:01:31.471680,15.50352851,.00166049,42.0056,321.1536,343.9678,16.0639,0,U,49469,999,25734,.43921254E-3,.25484E-3,0
GAOFEN-3 02,2021-109A,2026-06-12T21:16:10.702272,14.42216022,.0003219,98.4089,172.0437,27.6844,332.4517,0,U,49495,999,23969,-.15081E-4,-.93E-6,0
GLOBAL-12,2021-115BA,2026-06-12T01:19:36.808896,15.53268584,.00033779,53.1955,69.2105,59.2275,300.9069,0,U,49772,999,25510,.49303237E-3,.31244E-3,0
GLOBAL-13,2021-115BB,2026-06-12T01:51:07.767936,15.45847046,.0004105,53.1976,78.8751,98.3212,261.8261,0,U,49773,999,25497,.38295004E-3,.185E-3,0
GLOBAL-17,2021-120A,2026-06-12T01:40:24.260736,15.51988435,.00149377,41.9943,79.7812,223.5681,136.3984,0,U,49949,999,25410,.43706556E-3,.26879E-3,0
GLOBAL-16,2021-120B,2026-06-12T01:49:54.416064,15.49934386,.0012775,41.9944,83.3781,215.8466,144.1521,0,U,49950,999,25405,.41126171E-3,.23428E-3,0
XW-3 (CAS-9),2021-131B,2026-06-12T21:20:48.924096,14.41353089,.0005304,98.4976,256.3023,106.1028,254.0745,0,U,50466,999,23449,.11807E-3,.338E-5,0
ION SCV-004,2022-002K,2026-06-12T20:29:47.803200,15.30410775,.0007645,97.2844,221.5937,23.0577,337.1006,0,U,50993,999,24463,.18849E-3,.5472E-4,0
ETV-A1,2022-002CE,2026-06-12T20:33:57.900096,15.40595295,.0005007,97.2887,230.1744,19.4060,340.7376,0,U,51060,999,24517,.29803E-3,.12052E-3,0
BRO-5,2022-002CF,2026-06-12T20:28:36.931008,15.47135199,.0004,97.3007,237.4839,351.2985,8.8195,0,U,51061,999,24558,.55409E-3,.28081E-3,0
LUDI TANCE 1-01A (L-SAR 01A),2022-007A,2026-06-12T21:05:12.309216,14.88417162,.0001613,97.8098,171.3598,90.6787,269.4615,0,U,51284,999,23783,.66974E-4,.567E-5,0
LUDI TANCE 1-01B (L-SAR 01B),2022-018A,2026-06-12T20:16:46.955424,14.88413297,.0001586,97.8102,171.3229,91.2464,268.8935,0,U,51822,999,23306,.71761E-4,.611E-5,0
