{"_default": { "214": {"norad_id": "48924", "name": "FARADAY_PHOENIX", "tle1": "1 48924U 21059AX  26163.07908814  .00127469  00000-0  77317-3 0  9996", "tle2": "2 48924  97.6816   0.5452 0002688 328.1615  31.9487 15.77162162276850", "object_type": "PAYLOAD", "criticality_score": 7.0, "last_updated": "2026-06-13T11:16:06.819600+00:00", "maneuver_count": 0, "owner": "UK"}, "215": {"norad_id": "48951", "name": "DEMO8(TENZING)", "tle1": "1 48951U 21059CA  26163.80087211  .00020993  00000-0  31600-3 0  9995", "tle2": "2 48951  97.7022 356.8874 0006664  12.0432 348.0980 15.54834712276626", "object_type": "PAYLOAD", "criticality_score": 7.0, "last_updated": "2026-06-13T11:16:06.819600+00:00", "maneuver_count": 0, "owner": "US"}, "218": {"norad_id": "49008", "name": "FENGYUN 3E", "tle1": "1 49008U 21062A   26163.90321307  .00000019  00000-0  29562-4 0  9993", "tle2": "2 49008  98.7493 167.3584 0002795  92.3223 267.8273 14.19904097255978", "object_type": "PAYLOAD", "criticality_score": 7.0, "last_updated": "2026-06-13T11:16:06.819600+00:00", "maneuver_count": 0, "owner": "PRC"}, "219": {"norad_id": "49044", "name": "ISS (NAUKA)", "tle1": "1 49044U 21066A   26163.80312907  .00008495  00000-0  16106-3 0  9997", "tle2": "2 49044  51.6335 321.7912 0004900 178.5917 181.5086 15.49196054571187", "object_type": "PAYLOAD", "criticality_score": 7.0, "last_updated": "2026-06-13T11:16:06.819600+00:00", "maneuver_count": 0, "owner": "CIS"}, "225": {"norad_id": "49263", "name": "CUTE-LASP", "tle1": "1 49263U 21088D   26163.78917242  .00153027  10815-4  46806-3 0  9995", "tle2": "2 49263  97.4156 262.6626 0007665 237.5184 122.5349 15.91900919261854", "object_type": "PAYLOAD", "criticality_score": 7.0, "last_updated": "2026-06-13T11:16:06.819600+00:00", "maneuver_count": 0, "owner": "US"}, "247": {"norad_id": "48892", "name": "TYVAK-0173", "tle1": "1 48892U 21059P   26163.74110860  .00001709  00000-0  21987-3 0  9990", "tle2": "2 48892  96.0086 241.2028 0010480  52.9227 307.2947 14.81877608267581", "object_type": "PAYLOAD", "criticality_score": 7.0, "last_updated": "2026-06-13T11:16:06.819600+00:00", "maneuver_count": 0, "owner": "AUS"}, "248": {"norad_id": "48963", "name": "NAPA-2", "tle1": "1 48963U 21059CN  26163.25136573  .00335825  48086-4  76009-3 0  9998", "tle2": "2 48963  97.6689   1.7349 0002918 243.6052 116.4925 15.97574649277026", "object_type": "PAYLOAD", "criticality_score": 7.0, "last_updated": "2026-06-13T11:16:06.819600+00:00", "maneuver_count": 0, "owner": "THAI"}, "249": {"norad_id": "48907", "name": "MANDRAKE 2 ABLE", "tle1": "1 48907U 21059AE  26163.79785819  .00022832  00000-0  34379-3 0  9993", "tle2": "2 48907  97.7031 353.2483 0004779  21.5330 338.6123 15.54820205276447", "object_type": "PAYLOAD", "criticality_score": 7.0, "last_updated": "2026-06-13T11:16:06.819600+00:00", "maneuver_count": 0, "owner": "US"}, "252": {"norad_id": "48908", "name": "MANDRAKE 2 BAKER", "tle1": "1 48908U 21059AF  26163.16475283  .00028188  00000-0  35890-3 0  9995", "tle2": "2 48908  97.7004 355.4037 0003351  26.4419 333.7006 15.59312225276511", "object_type": "PAYLOAD", "criticality_score": 7.0, "last_updated": "2026-06-13T11:16:06.819600+00:00", "maneuver_count": 0, "owner": "US"}, "253": {"norad_id": "49399", "name": "Z-SAT", "tle1": "1 49399U 21102E   26163.84809640  .00004045  00000-0  20037-3 0  9995", "tle2": "2 49399  97.3330 199.3026 0014892 261.8922  98.0623 15.18230933252782", "object_type": "PAYLOAD", "criticality_score": 7.0, "last_updated": "2026-06-13T11:16:06.819600+00:00", "maneuver_count": 0, "owner": "JPN"}, "254": {"norad_id": "49396", "name": "TEIKYOSAT-4 (OORURI)", "tle1": "1 49396U 21102B   26163.81187340  .00001815  00000-0  11696-3 0  9998", "tle2": "2 49396  97.3671 193.4655 0010746 313.8079  46.2261 15.09494715252069", "object_type": "PAYLOAD", "criticality_score": 7.0, "last_updated": "2026-06-13T11:16:06.819600+00:00", "maneuver_count": 0, "owner": "JPN"}, "256": {"norad_id": "49402", "name": "KOSEN-1", "tle1": "1 49402U 21102H   26163.09516589  .00006510  00000-0  24961-3 0  9993", "tle2": "2 49402  97.3194 205.3513 0012672 219.4221 140.6097 15.26764823253249", "object_type": "PAYLOAD", "criticality_score": 7.0, "last_updated": "2026-06-13T11:16:06.819600+00:00", "maneuver_count": 0, "owner": "JPN"}, "257": {"norad_id": "50466", "name": "XW-3 (CAS 9)", "tle1": "1 50466U 21131B   26163.88945514  .00000338  00000-0  11807-3 0  9995", "tle2": "2 50466  98.4976 256.3023 0005304 106.1028 254.0745 14.41353089234494", "object_type": "PAYLOAD", "criticality_score": 7.0, "last_updated": "2026-06-13T11:16:06.819600+00:00", "maneuver_count": 0, "owner": "PRC"}, "263": {"norad_id": "51061", "name": "BRO-5", "tle1": "1 51061U 22002CF  26163.85320522  .00028081  00000-0  55409-3 0  9999", "tle2": "2 51061  97.3007 237.4839 0004000 351.2985   8.8195 15.47135199245584", "object_type": "PAYLOAD", "criticality_score": 7.0, "last_updated": "2026-06-13T11:16:06.819600+00:00", "maneuver_count": 0, "owner": "FR"}, "264": {"norad_id": "50993", "name": "ION SCV-004", "tle1": "1 50993U 22002K   26163.85402550  .00005472  00000-0  18849-3 0  9990", "tle2": "2 50993  97.2844 221.5937 0007645  23.0577 337.1006 15.30410775244639", "object_type": "PAYLOAD", "criticality_score": 7.0, "last_updated": "2026-06-13T11:16:06.819600+00:00", "maneuver_count": 0, "owner": "IT"}, "319": {"norad_id": "48915", "name": "YAM-3", "tle1": "1 48915U 21059AN  26163.80231363  .00012547  00000-0  23797-3 0  9998", "tle2": "2 48915  97.6990 350.4717 0005395  25.3896 334.7618 15.48462240276318", "object_type": "PAYLOAD", "criticality_score": 7.0, "last_updated": "2026-06-13T11:16:06.819600+00:00", "maneuver_count": 0, "owner": "US"}, "328": {"norad_id": "49144", "name": "STARLINK-3100", "tle1": "1 49144U 21082Q   26163.83439573  .00001345  00000-0  12052-3 0  9991", "tle2": "2 49144  70.0001  54.5541 0003080 268.5172  91.5634 14.98325117260230", "object_type": "PAYLOAD", "criticality_score": 8.0, "last_updated": "2026-06-13T11:16:06.819600+00:00", "maneuver_count": 0, "owner": "US"}, "405": {"norad_id": "51060", "name": "ETV-A1", "tle1": "1 51060U 22002CE  26163.85692014  .00012052  00000-0  29803-3 0  9996", "tle2": "2 51060  97.2887 230.1744 0005007  19.4060 340.7376 15.40595295245172", "object_type": "PAYLOAD", "criticality_score": 7.0, "last_updated": "2026-06-13T11:16:06.819600+00:00", "maneuver_count": 0, "owner": "UK"}, "415": {"norad_id": "51284", "name": "LT-1 01A", "tle1": "1 51284U 22007A   26163.87861469  .00000567  00000-0  66974-4 0  9992", "tle2": "2 51284  97.8098 171.3598 0001613  90.6787 269.4615 14.88417162237833", "object_type": "PAYLOAD", "criticality_score": 7.0, "last_updated": "2026-06-13T11:16:06.819600+00:00", "maneuver_count": 0, "owner": "PRC"}, "427": {"norad_id": "49773", "name": "GLOBAL-13", "tle1": "1 49773U 21115BB  26163.07717324  .00018500  00000-0  38295-3 0  9993", "tle2": "2 49773  53.1976  78.8751 0004105  98.3212 261.8261 15.45847046254971", "object_type": "PAYLOAD", "criticality_score": 7.0, "last_updated": "2026-06-13T11:16:06.819600+00:00", "maneuver_count": 0, "owner": "US"}, "428": {"norad_id": "49772", "name": "GLOBAL-12", "tle1": "1 49772U 21115BA  26163.05528714  .00031244  00000-0  49303-3 0  9995", "tle2": "2 49772  53.1955  69.2105 0003378  59.2275 300.9069 15.53268584255100", "object_type": "PAYLOAD", "criticality_score": 7.0, "last_updated": "2026-06-13T11:16:06.819600+00:00", "maneuver_count": 0, "owner": "US"}, "444": {"norad_id": "49387", "name": "SDGSAT 1", "tle1": "1 49387U 21100A   26163.88573611  .00002416  00000-0  11553-3 0  9993", "tle2": "2 49387  97.2642 210.9953 0006731 317.9752  42.0966 15.19905373255263", "object_type": "PAYLOAD", "criticality_score": 7.0, "last_updated": "2026-06-13T11:16:06.819600+00:00", "maneuver_count": 0, "owner": "PRC"}, "447": {"norad_id": "49469", "name": "GLOBAL-14", "tle1": "1 49469U 21106A   26163.12605870  .00025484  00000-0  43921-3 0  9994", "tle2": "2 49469  42.0056 321.1536 0016605 343.9678  16.0639 15.50352851257341", "object_type": "PAYLOAD", "criticality_score": 7.0, "last_updated": "2026-06-13T11:16:06.819600+00:00", "maneuver_count": 0, "owner": "US"}, "449": {"norad_id": "49950", "name": "GLOBAL-16", "tle1": "1 49950U 21120B   26163.07632426  .00023428  00000-0  41126-3 0  9997", "tle2": "2 49950  41.9944  83.3781 0012775 215.8466 144.1521 15.49934386254050", "object_type": "PAYLOAD", "criticality_score": 7.0, "last_updated": "2026-06-13T11:16:06.819600+00:00", "maneuver_count": 0, "owner": "US"}, "501": {"norad_id": "51822", "name": "LT-1 01B", "tle1": "1 51822U 22018A   26163.84498791  .00000611  00000-0  71761-4 0  9993", "tle2": "2 51822  97.8102 171.3229 0001586  91.2464 268.8935 14.88413297233060", "object_type": "PAYLOAD", "criticality_score": 7.0, "last_updated": "2026-06-13T11:16:06.819600+00:00", "maneuver_count": 0, "owner": "PRC"}, "507": {"norad_id": "49495", "name": "GAOFEN 3 02", "tle1": "1 49495U 21109A   26163.88623498 -.00000093  00000-0 -15081-4 0  9993", "tle2": "2 49495  98.4089 172.0437 0003219  27.6844 332.4517 14.42216022239699", "object_type": "PAYLOAD", "criticality_score": 7.0, "last_updated": "2026-06-13T11:16:06.819600+00:00", "maneuver_count": 0, "owner": "PRC"}, "508": {"norad_id": "49316", "name": "OBJECT B", "tle1": "1 49316U 21091B   26163.84277167  .00002439  00000-0  12113-3 0  9995", "tle2": "2 49316  97.4476 351.4843 0014898  59.1772 301.0926 15.18533888258322", "object_type": "PAYLOAD", "criticality_score": 7.0, "last_updated": "2026-06-13T11:16:06.819600+00:00", "maneuver_count": 0, "owner": "PRC"}, "563": {"norad_id": "49949", "name": "GLOBAL-17", "tle1": "1 49949U 21120A   26163.06972524  .00026879  00000-0  43707-3 0  9990", "tle2": "2 49949  41.9943  79.7812 0014938 223.5681 136.3984 15.51988435254108", "object_type": "PAYLOAD", "criticality_score": 7.0, "last_updated": "2026-06-13T11:16:06.819600+00:00", "maneuver_count": 0, "owner": "US"}, "565": {"norad_id": "48909", "name": "PACE-1", "tle1": "1 48909U 21059AG  26163.27585091  .00097533  00000-0  54684-3 0  9999", "tle2": "2 48909  97.6766   0.8663 0000776 300.2810  59.8379 15.79022279277023", "object_type": "PAYLOAD", "criticality_score": 7.0, "last_updated": "2026-06-13T11:16:06.819600+00:00", "maneuver_count": 0, "owner": "US"}, "640": {"norad_id": "49400", "name": "HIBARI", "tle1": "1 49400U 21102F   26163.10623315  .00009356  00000-0  30831-3 0  9993", "tle2": "2 49400  97.3245 209.0673 0010850 210.1983 149.8634 15.31626124253415", "object_type": "PAYLOAD", "criticality_score": 7.0, "last_updated": "2026-06-13T11:16:06.819600+00:00", "maneuver_count": 0, "owner": "JPN"}}}